{
  "type": "FeatureCollection",
  "features": [
    {
      "type": "Feature",
      "properties": {
        "norad_id": 39773,
        "name": "EUTELSAT 3B",
        "group": "eutelsat",
        "lat": -0.0756232277745106,
        "lon": -76.18058061929284,
        "alt_km": 35774.992530691045,
        "timestamp": "2025-12-03T13:52:09.237001+00:00",
        "meta_object_name": "EUTELSAT 3B",
        "meta_object_id": "2014-030A",
        "meta_epoch": "2025-12-03T06:55:18.626592",
        "meta_mean_motion": 1.00270763,
        "meta_eccentricity": 0.00047688,
        "meta_inclination": 0.0633,
        "meta_ra_of_asc_node": 1.7544,
        "meta_arg_of_pericenter": 226.1102,
        "meta_mean_anomaly": 311.4393,
        "meta_ephemeris_type": 0,
        "meta_classification_type": "U",
        "meta_norad_cat_id": 39773,
        "meta_element_set_no": 999,
        "meta_rev_at_epoch": 4210,
        "meta_bstar": 0,
        "meta_mean_motion_dot": 3.9e-07,
        "meta_mean_motion_ddot": 0,
        "tle_line1": "1 39773U 14030A   25337.28841003  .00000039  00000+0  00000+0 0  9993",
        "tle_line2": "2 39773   0.0633   1.7544 0004768 226.1102 311.4393  1.00270763 42100"
      },
      "geometry": {
        "type": "Point",
        "coordinates": [
          -76.18058061929284,
          -0.0756232277745106
        ]
      }
    },
    {
      "type": "Feature",
      "properties": {
        "norad_id": 40425,
        "name": "EUTELSAT 115 WEST B",
        "group": "eutelsat",
        "lat": 0.005014393301055387,
        "lon": 165.78801662043918,
        "alt_km": 35786.211502307815,
        "timestamp": "2025-12-03T13:52:09.237013+00:00",
        "meta_object_name": "EUTELSAT 115 WEST B",
        "meta_object_id": "2015-010B",
        "meta_epoch": "2025-12-02T23:30:40.501152",
        "meta_mean_motion": 1.00271793,
        "meta_eccentricity": 3.39e-05,
        "meta_inclination": 0.0139,
        "meta_ra_of_asc_node": 143.9078,
        "meta_arg_of_pericenter": 285.8537,
        "meta_mean_anomaly": 240.0881,
        "meta_ephemeris_type": 0,
        "meta_classification_type": "U",
        "meta_norad_cat_id": 40425,
        "meta_element_set_no": 999,
        "meta_rev_at_epoch": 3942,
        "meta_bstar": 0,
        "meta_mean_motion_dot": -6e-08,
        "meta_mean_motion_ddot": 0,
        "tle_line1": "1 40425U 15010B   25336.97963543 -.00000006  00000+0  00000+0 0  9992",
        "tle_line2": "2 40425   0.0139 143.9078 0000339 285.8537 240.0881  1.00271793 39426"
      },
      "geometry": {
        "type": "Point",
        "coordinates": [
          165.78801662043918,
          0.005014393301055387
        ]
      }
    },
    {
      "type": "Feature",
      "properties": {
        "norad_id": 40875,
        "name": "EUTELSAT 8 WEST B",
        "group": "eutelsat",
        "lat": -0.08149973923349037,
        "lon": -87.29983197769207,
        "alt_km": 35769.47631612442,
        "timestamp": "2025-12-03T13:52:09.237024+00:00",
        "meta_object_name": "EUTELSAT 8 WEST B",
        "meta_object_id": "2015-039B",
        "meta_epoch": "2025-12-03T06:52:03.938016",
        "meta_mean_motion": 1.00271578,
        "meta_eccentricity": 0.00041355,
        "meta_inclination": 0.0658,
        "meta_ra_of_asc_node": 346.9952,
        "meta_arg_of_pericenter": 267.8251,
        "meta_mean_anomaly": 272.581,
        "meta_ephemeris_type": 0,
        "meta_classification_type": "U",
        "meta_norad_cat_id": 40875,
        "meta_element_set_no": 999,
        "meta_rev_at_epoch": 3769,
        "meta_bstar": 0,
        "meta_mean_motion_dot": -4.7e-07,
        "meta_mean_motion_ddot": 0,
        "tle_line1": "1 40875U 15039B   25337.28615669 -.00000047  00000+0  00000+0 0  9995",
        "tle_line2": "2 40875   0.0658 346.9952 0004135 267.8251 272.5810  1.00271578 37698"
      },
      "geometry": {
        "type": "Point",
        "coordinates": [
          -87.29983197769207,
          -0.08149973923349037
        ]
      }
    },
    {
      "type": "Feature",
      "properties": {
        "norad_id": 41310,
        "name": "EUTELSAT 9B",
        "group": "eutelsat",
        "lat": -0.048314587260353634,
        "lon": -70.31128609256406,
        "alt_km": 35767.42533016116,
        "timestamp": "2025-12-03T13:52:09.237036+00:00",
        "meta_object_name": "EUTELSAT 9B",
        "meta_object_id": "2016-005A",
        "meta_epoch": "2025-12-03T06:56:55.971744",
        "meta_mean_motion": 1.0027125,
        "meta_eccentricity": 0.0004899,
        "meta_inclination": 0.0654,
        "meta_ra_of_asc_node": 74.9813,
        "meta_arg_of_pericenter": 189.776,
        "meta_mean_anomaly": 280.8435,
        "meta_ephemeris_type": 0,
        "meta_classification_type": "U",
        "meta_norad_cat_id": 41310,
        "meta_element_set_no": 999,
        "meta_rev_at_epoch": 3615,
        "meta_bstar": 0,
        "meta_mean_motion_dot": 8e-07,
        "meta_mean_motion_ddot": 0,
        "tle_line1": "1 41310U 16005A   25337.28953671  .00000080  00000+0  00000+0 0  9998",
        "tle_line2": "2 41310   0.0654  74.9813 0004899 189.7760 280.8435  1.00271250 36159"
      },
      "geometry": {
        "type": "Point",
        "coordinates": [
          -70.31128609256406,
          -0.048314587260353634
        ]
      }
    },
    {
      "type": "Feature",
      "properties": {
        "norad_id": 41382,
        "name": "EUTELSAT 65 WEST A",
        "group": "eutelsat",
        "lat": -0.062352495065922574,
        "lon": -144.54334596726068,
        "alt_km": 35777.91404270544,
        "timestamp": "2025-12-03T13:52:09.237048+00:00",
        "meta_object_name": "EUTELSAT 65 WEST A",
        "meta_object_id": "2016-014A",
        "meta_epoch": "2025-12-03T06:35:50.491680",
        "meta_mean_motion": 1.00270713,
        "meta_eccentricity": 0.00027768,
        "meta_inclination": 0.0501,
        "meta_ra_of_asc_node": 343.9233,
        "meta_arg_of_pericenter": 275.2871,
        "meta_mean_anomaly": 206.918,
        "meta_ephemeris_type": 0,
        "meta_classification_type": "U",
        "meta_norad_cat_id": 41382,
        "meta_element_set_no": 999,
        "meta_rev_at_epoch": 3557,
        "meta_bstar": 0,
        "meta_mean_motion_dot": -2.57e-06,
        "meta_mean_motion_ddot": 0,
        "tle_line1": "1 41382U 16014A   25337.27488995 -.00000257  00000+0  00000+0 0  9995",
        "tle_line2": "2 41382   0.0501 343.9233 0002776 275.2871 206.9180  1.00270713 35574"
      },
      "geometry": {
        "type": "Point",
        "coordinates": [
          -144.54334596726068,
          -0.062352495065922574
        ]
      }
    },
    {
      "type": "Feature",
      "properties": {
        "norad_id": 41589,
        "name": "EUTELSAT 117 WEST B",
        "group": "eutelsat",
        "lat": 0.007840508547761495,
        "lon": 163.67387908265974,
        "alt_km": 35786.356580450934,
        "timestamp": "2025-12-03T13:52:09.237075+00:00",
        "meta_object_name": "EUTELSAT 117 WEST B",
        "meta_object_id": "2016-038B",
        "meta_epoch": "2025-12-02T23:30:03.060576",
        "meta_mean_motion": 1.00267861,
        "meta_eccentricity": 1.928e-05,
        "meta_inclination": 0.0046,
        "meta_ra_of_asc_node": 146.1916,
        "meta_arg_of_pericenter": 23.0604,
        "meta_mean_anomaly": 138.3396,
        "meta_ephemeris_type": 0,
        "meta_classification_type": "U",
        "meta_norad_cat_id": 41589,
        "meta_element_set_no": 999,
        "meta_rev_at_epoch": 3469,
        "meta_bstar": 0,
        "meta_mean_motion_dot": 8e-08,
        "meta_mean_motion_ddot": 0,
        "tle_line1": "1 41589U 16038B   25336.97920209  .00000008  00000+0  00000+0 0  9998",
        "tle_line2": "2 41589   0.0046 146.1916 0000192  23.0604 138.3396  1.00267861 34690"
      },
      "geometry": {
        "type": "Point",
        "coordinates": [
          163.67387908265974,
          0.007840508547761495
        ]
      }
    },
    {
      "type": "Feature",
      "properties": {
        "norad_id": 42741,
        "name": "EUTELSAT 172B",
        "group": "eutelsat",
        "lat": -0.006361632597398684,
        "lon": 92.67469818218454,
        "alt_km": 35786.722726389205,
        "timestamp": "2025-12-03T13:52:09.237089+00:00",
        "meta_object_name": "EUTELSAT 172B",
        "meta_object_id": "2017-029B",
        "meta_epoch": "2025-12-03T07:44:38.676768",
        "meta_mean_motion": 1.00271129,
        "meta_eccentricity": 1.864e-05,
        "meta_inclination": 0.0039,
        "meta_ra_of_asc_node": 201.5543,
        "meta_arg_of_pericenter": 17.0519,
        "meta_mean_anomaly": 141.967,
        "meta_ephemeris_type": 0,
        "meta_classification_type": "U",
        "meta_norad_cat_id": 42741,
        "meta_element_set_no": 999,
        "meta_rev_at_epoch": 3176,
        "meta_bstar": 0,
        "meta_mean_motion_dot": 1.3e-07,
        "meta_mean_motion_ddot": 0,
        "tle_line1": "1 42741U 17029B   25337.32266987  .00000013  00000+0  00000+0 0  9992",
        "tle_line2": "2 42741   0.0039 201.5543 0000186  17.0519 141.9670  1.00271129 31768"
      },
      "geometry": {
        "type": "Point",
        "coordinates": [
          92.67469818218454,
          -0.006361632597398684
        ]
      }
    }
  ]
}